start=new Date('2022-04-27T00:00:00.000Z').valueOf();
sats=[{"ECCENTRICITY":"0.00082980","MEAN_ANOMALY":"80.1275","LAUNCH_DATE":"2022-02-25","OBJECT_ID":"2022-017BB","INCLINATION":"53.2179","BSTAR":"-0.00011295000000","FILE":"3417035","APOAPSIS":"342.049","CENTER_NAME":"EARTH","SITE":"AFWTR","REF_FRAME":"TEME","RCS_SIZE":"LARGE","CLASSIFICATION_TYPE":"U","COUNTRY_CODE":"US","PERIAPSIS":"330.906","ELEMENT_SET_NO":"999","RA_OF_ASC_NODE":"203.3231","OBJECT_TYPE":"PAYLOAD","OBJECT_NAME":"STARLINK-3596","TLE_LINE2":"2 51817  53.2179 203.3231 0008298 279.8810  80.1275 15.77870348 10708","REV_AT_EPOCH":"1070","MEAN_MOTION":"15.77870348","ARG_OF_PERICENTER":"279.8810","PERIOD":"91.262","NORAD_CAT_ID":"51817","TLE_LINE1":"1 51817U 22017BB  22116.53363312 -.00020129  00000-0 -11295-3 0  9999","GP_ID":"202078259","MEAN_ELEMENT_THEORY":"SGP4","EPOCH":"2022-04-26T12:48:25.901568","TIME_SYSTEM":"UTC","DECAY_DATE":null,"SEMIMAJOR_AXIS":"6714.613","MEAN_MOTION_DOT":"-0.00020129","EPHEMERIS_TYPE":"0","MEAN_MOTION_DDOT":"0.0000000000000"},{"TLE_LINE2":"2 51852  53.2172 241.7030 0001765  36.0529 310.5489 15.21260703  3622","MEAN_MOTION":"15.21260703","REV_AT_EPOCH":"362","OBJECT_TYPE":"PAYLOAD","OBJECT_NAME":"STARLINK-3542","GP_ID":"202113741","MEAN_ELEMENT_THEORY":"SGP4","TLE_LINE1":"1 51852U 22022A   22116.91667824 -.00726980  00000-0 -34479-1 0  9996","NORAD_CAT_ID":"51852","PERIOD":"94.658","ARG_OF_PERICENTER":"36.0529","TIME_SYSTEM":"UTC","SEMIMAJOR_AXIS":"6880.174","DECAY_DATE":null,"EPOCH":"2022-04-26T22:00:00.999936","EPHEMERIS_TYPE":"0","MEAN_MOTION_DDOT":"0.0000000000000","MEAN_MOTION_DOT":"-0.00726980","INCLINATION":"53.2172","BSTAR":"-0.03447900000000","APOAPSIS":"503.253","FILE":"3417474","LAUNCH_DATE":"2022-03-03","MEAN_ANOMALY":"310.5489","ECCENTRICITY":"0.00017650","OBJECT_ID":"2022-022A","SITE":"AFETR","CENTER_NAME":"EARTH","COUNTRY_CODE":"US","PERIAPSIS":"500.824","RCS_SIZE":"LARGE","CLASSIFICATION_TYPE":"U","REF_FRAME":"TEME","ELEMENT_SET_NO":"999","RA_OF_ASC_NODE":"241.7030"},{"EPOCH":"2022-04-26T22:00:00.999936","DECAY_DATE":null,"SEMIMAJOR_AXIS":"6880.558","TIME_SYSTEM":"UTC","MEAN_MOTION_DOT":"-0.00727474","MEAN_MOTION_DDOT":"0.0000000000000","EPHEMERIS_TYPE":"0","OBJECT_NAME":"STARLINK-3539","OBJECT_TYPE":"PAYLOAD","REV_AT_EPOCH":"362","MEAN_MOTION":"15.21133129","TLE_LINE2":"2 51853  53.2172 241.7026 0001787  36.9461 293.3722 15.21133129  3625","ARG_OF_PERICENTER":"36.9461","PERIOD":"94.666","NORAD_CAT_ID":"51853","TLE_LINE1":"1 51853U 22022B   22116.91667824 -.00727474  00000-0 -34634-1 0  9999","GP_ID":"202113908","MEAN_ELEMENT_THEORY":"SGP4","REF_FRAME":"TEME","CLASSIFICATION_TYPE":"U","RCS_SIZE":"LARGE","COUNTRY_CODE":"US","PERIAPSIS":"501.194","RA_OF_ASC_NODE":"241.7026","ELEMENT_SET_NO":"999","OBJECT_ID":"2022-022B","ECCENTRICITY":"0.00017870","MEAN_ANOMALY":"293.3722","LAUNCH_DATE":"2022-03-03","APOAPSIS":"503.653","FILE":"3417474","BSTAR":"-0.03463400000000","INCLINATION":"53.2172","CENTER_NAME":"EARTH","SITE":"AFETR"},{"EPOCH":"2022-04-26T22:00:00.999936","DECAY_DATE":null,"SEMIMAJOR_AXIS":"6879.789","TIME_SYSTEM":"UTC","MEAN_MOTION_DOT":"-0.00726535","MEAN_MOTION_DDOT":"0.0000000000000","EPHEMERIS_TYPE":"0","OBJECT_NAME":"STARLINK-3541","OBJECT_TYPE":"PAYLOAD","REV_AT_EPOCH":"362","MEAN_MOTION":"15.21388302","TLE_LINE2":"2 51854  53.2172 241.7035 0001747  36.6356 326.2113 15.21388302  3627","PERIOD":"94.650","ARG_OF_PERICENTER":"36.6356","NORAD_CAT_ID":"51854","TLE_LINE1":"1 51854U 22022C   22116.91667824 -.00726535  00000-0 -34327-1 0  9996","GP_ID":"202113826","MEAN_ELEMENT_THEORY":"SGP4","REF_FRAME":"TEME","RCS_SIZE":"LARGE","CLASSIFICATION_TYPE":"U","COUNTRY_CODE":"US","PERIAPSIS":"500.452","RA_OF_ASC_NODE":"241.7035","ELEMENT_SET_NO":"999","OBJECT_ID":"2022-022C","MEAN_ANOMALY":"326.2113","ECCENTRICITY":"0.00017470","LAUNCH_DATE":"2022-03-03","APOAPSIS":"502.856","FILE":"3417474","INCLINATION":"53.2172","BSTAR":"-0.03432700000000","CENTER_NAME":"EARTH","SITE":"AFETR"},{"EPOCH":"2022-04-26T22:00:00.999936","SEMIMAJOR_AXIS":"6879.021","DECAY_DATE":null,"TIME_SYSTEM":"UTC","MEAN_MOTION_DOT":"-0.00725199","EPHEMERIS_TYPE":"0","MEAN_MOTION_DDOT":"0.0000000000000","OBJECT_NAME":"STARLINK-3545","OBJECT_TYPE":"PAYLOAD","MEAN_MOTION":"15.21643230","REV_AT_EPOCH":"362","TLE_LINE2":"2 51855  53.2171 241.7044 0001641  39.6245 355.5974 15.21643230  3624","NORAD_CAT_ID":"51855","TLE_LINE1":"1 51855U 22022D   22116.91667824 -.00725199  00000-0 -34003-1 0  9993","ARG_OF_PERICENTER":"39.6245","PERIOD":"94.635","GP_ID":"202113665","MEAN_ELEMENT_THEORY":"SGP4","REF_FRAME":"TEME","COUNTRY_CODE":"US","PERIAPSIS":"499.757","RCS_SIZE":"LARGE","CLASSIFICATION_TYPE":"U","RA_OF_ASC_NODE":"241.7044","ELEMENT_SET_NO":"999","OBJECT_ID":"2022-022D","LAUNCH_DATE":"2022-03-03","MEAN_ANOMALY":"355.5974","ECCENTRICITY":"0.00016410","FILE":"3417474","APOAPSIS":"502.015","INCLINATION":"53.2171","BSTAR":"-0.03400300000000","CENTER_NAME":"EARTH","SITE":"AFETR"},{"MEAN_MOTION":"15.21515737","REV_AT_EPOCH":"362","TLE_LINE2":"2 51856  53.2172 241.7040 0001697  37.8298 341.2238 15.21515737  3626","OBJECT_NAME":"STARLINK-3568","OBJECT_TYPE":"PAYLOAD","MEAN_ELEMENT_THEORY":"SGP4","GP_ID":"202113410","TLE_LINE1":"1 51856U 22022E   22116.91667824 -.00725793  00000-0 -34161-1 0  9999","NORAD_CAT_ID":"51856","ARG_OF_PERICENTER":"37.8298","PERIOD":"94.642","SEMIMAJOR_AXIS":"6879.405","DECAY_DATE":null,"TIME_SYSTEM":"UTC","EPOCH":"2022-04-26T22:00:00.999936","MEAN_MOTION_DDOT":"0.0000000000000","EPHEMERIS_TYPE":"0","MEAN_MOTION_DOT":"-0.00725793","FILE":"3417474","APOAPSIS":"502.437","INCLINATION":"53.2172","BSTAR":"-0.03416100000000","OBJECT_ID":"2022-022E","LAUNCH_DATE":"2022-03-03","MEAN_ANOMALY":"341.2238","ECCENTRICITY":"0.00016970","SITE":"AFETR","CENTER_NAME":"EARTH","COUNTRY_CODE":"US","PERIAPSIS":"500.103","CLASSIFICATION_TYPE":"U","RCS_SIZE":"LARGE","REF_FRAME":"TEME","RA_OF_ASC_NODE":"241.7040","ELEMENT_SET_NO":"999"},{"ELEMENT_SET_NO":"999","RA_OF_ASC_NODE":"241.7048","REF_FRAME":"TEME","RCS_SIZE":"LARGE","CLASSIFICATION_TYPE":"U","COUNTRY_CODE":"US","PERIAPSIS":"499.122","CENTER_NAME":"EARTH","SITE":"AFETR","MEAN_ANOMALY":"16.4080","ECCENTRICITY":"0.00014470","LAUNCH_DATE":"2022-03-03","OBJECT_ID":"2022-022F","BSTAR":"-0.03367400000000","INCLINATION":"53.2171","APOAPSIS":"501.113","FILE":"3417474","MEAN_MOTION_DOT":"-0.00723700","MEAN_MOTION_DDOT":"0.0000000000000","EPHEMERIS_TYPE":"0","EPOCH":"2022-04-26T22:00:00.999936","TIME_SYSTEM":"UTC","DECAY_DATE":null,"SEMIMAJOR_AXIS":"6878.253","ARG_OF_PERICENTER":"51.0354","PERIOD":"94.619","NORAD_CAT_ID":"51857","TLE_LINE1":"1 51857U 22022F   22116.91667824 -.00723700  00000-0 -33674-1 0  9994","MEAN_ELEMENT_THEORY":"SGP4","GP_ID":"202113578","OBJECT_TYPE":"PAYLOAD","OBJECT_NAME":"STARLINK-3571","TLE_LINE2":"2 51857  53.2171 241.7048 0001447  51.0354  16.4080 15.21898109  3621","REV_AT_EPOCH":"362","MEAN_MOTION":"15.21898109"},{"TIME_SYSTEM":"UTC","DECAY_DATE":null,"SEMIMAJOR_AXIS":"6878.637","EPOCH":"2022-04-26T22:00:00.999936","MEAN_MOTION_DDOT":"0.0000000000000","EPHEMERIS_TYPE":"0","MEAN_MOTION_DOT":"-0.00724350","TLE_LINE2":"2 51858  53.2171 241.7045 0001586  42.4384   8.9135 15.21770623  3627","REV_AT_EPOCH":"362","MEAN_MOTION":"15.21770623","OBJECT_TYPE":"PAYLOAD","OBJECT_NAME":"STARLINK-3563","GP_ID":"202113496","MEAN_ELEMENT_THEORY":"SGP4","ARG_OF_PERICENTER":"42.4384","PERIOD":"94.627","NORAD_CAT_ID":"51858","TLE_LINE1":"1 51858U 22022G   22116.91667824 -.00724350  00000-0 -33833-1 0  9994","CLASSIFICATION_TYPE":"U","RCS_SIZE":"LARGE","PERIAPSIS":"499.411","COUNTRY_CODE":"US","REF_FRAME":"TEME","ELEMENT_SET_NO":"999","RA_OF_ASC_NODE":"241.7045","BSTAR":"-0.03383300000000","INCLINATION":"53.2171","APOAPSIS":"501.593","FILE":"3417474","ECCENTRICITY":"0.00015860","MEAN_ANOMALY":"8.9135","LAUNCH_DATE":"2022-03-03","OBJECT_ID":"2022-022G","SITE":"AFETR","CENTER_NAME":"EARTH"},{"DECAY_DATE":null,"SEMIMAJOR_AXIS":"6795.114","TIME_SYSTEM":"UTC","EPOCH":"2022-04-26T22:00:00.999936","EPHEMERIS_TYPE":"0","MEAN_MOTION_DDOT":"0.0000000000000","MEAN_MOTION_DOT":"0.00000027","REV_AT_EPOCH":"366","MEAN_MOTION":"15.49914128","TLE_LINE2":"2 51859  53.2131 237.1355 0001435  48.4478 120.7905 15.49914128  3662","OBJECT_NAME":"STARLINK-3560","OBJECT_TYPE":"PAYLOAD","GP_ID":"202113995","MEAN_ELEMENT_THEORY":"SGP4","ARG_OF_PERICENTER":"48.4478","PERIOD":"92.908","NORAD_CAT_ID":"51859","TLE_LINE1":"1 51859U 22022H   22116.91667824  .00000027  00000-0  84320-5 0  9992","RCS_SIZE":"LARGE","CLASSIFICATION_TYPE":"U","COUNTRY_CODE":"US","PERIAPSIS":"416.004","REF_FRAME":"TEME","RA_OF_ASC_NODE":"237.1355","ELEMENT_SET_NO":"999","APOAPSIS":"417.954","FILE":"3417474","BSTAR":"0.00000843200000","INCLINATION":"53.2131","OBJECT_ID":"2022-022H","ECCENTRICITY":"0.00014350","MEAN_ANOMALY":"120.7905","LAUNCH_DATE":"2022-03-03","SITE":"AFETR","CENTER_NAME":"EARTH"},{"MEAN_ANOMALY":"256.8214","ECCENTRICITY":"0.00018340","LAUNCH_DATE":"2022-03-03","OBJECT_ID":"2022-022J","INCLINATION":"53.2160","BSTAR":"-0.00048413000000","FILE":"3417474","APOAPSIS":"418.279","CENTER_NAME":"EARTH","SITE":"AFETR","REF_FRAME":"TEME","CLASSIFICATION_TYPE":"U","RCS_SIZE":"LARGE","PERIAPSIS":"415.787","COUNTRY_CODE":"US","ELEMENT_SET_NO":"999","RA_OF_ASC_NODE":"237.1144","OBJECT_TYPE":"PAYLOAD","OBJECT_NAME":"STARLINK-3559","TLE_LINE2":"2 51860  53.2160 237.1144 0001834  27.7717 256.8214 15.49895756  3660","REV_AT_EPOCH":"366","MEAN_MOTION":"15.49895756","PERIOD":"92.909","ARG_OF_PERICENTER":"27.7717","NORAD_CAT_ID":"51860","TLE_LINE1":"1 51860U 22022J   22116.91667824 -.00027843  00000-0 -48413-3 0  9992","GP_ID":"202113742","MEAN_ELEMENT_THEORY":"SGP4","EPOCH":"2022-04-26T22:00:00.999936","TIME_SYSTEM":"UTC","DECAY_DATE":null,"SEMIMAJOR_AXIS":"6795.168","MEAN_MOTION_DOT":"-0.00027843","EPHEMERIS_TYPE":"0","MEAN_MOTION_DDOT":"0.0000000000000"}];
